GLOBALSTAR M075         
1 37192U 10054E   25155.91436372 -.00000090  00000+0  75538-4 0  9996
2 37192  51.9930 218.9056 0000326 134.6870  36.3129 12.62265576674296
GLOBALSTAR M073         
1 37193U 10054F   25155.67704256 -.00000093  00000+0  57456-4 0  9991
2 37193  52.0037 133.4358 0000308 359.9426 171.6407 12.62271974676251
GLOBALSTAR M083         
1 37739U 11033A   25155.90772771 -.00000089  00000+0  82596-4 0  9996
2 37739  51.9862  81.4814 0000415  64.1194  15.9041 12.62263746645300
GLOBALSTAR M088         
1 37740U 11033B   25155.97693534 -.00000078  00000+0  14113-3 0  9991
2 37740  52.0063 346.8058 0000925  98.2096  57.0643 12.62265298640854
GLOBALSTAR M091         
1 37741U 11033C   25155.72129815 -.00000084  00000+0  11306-3 0  9999
2 37741  52.0010 311.0849 0000882 126.7302 246.4033 12.62268382641617
GLOBALSTAR M085         
1 37742U 11033D   25155.54962390 -.00000084  00000+0  11017-3 0  9992
2 37742  51.9871 262.6569 0000692 147.1065 225.9465 12.62269006642103
GLOBALSTAR M081         
1 37743U 11033E   25155.68523286 -.00000100  00000+0  19682-4 0  9991
2 37743  51.9959 265.0247 0000509 149.5394 358.9114 12.62264314642261
GLOBALSTAR M089         
1 37744U 11033F   25155.56567983 -.00000096  00000+0  45274-4 0  9991
2 37744  51.9915 219.6177 0000238  89.3400  57.0035 12.62264423643091
